     2.100          NAVIGATION                              RINEX VERSION / TYPE
fic2rin                                 09/09/2008 02:38:45 PGM / RUN BY / DATE
                                                            END OF HEADER
 9 08  9  8 11 59 44.0  .139316543937D-04  .181898940355D-11  .000000000000D+00
     .290000000000D+02 -.559062500000D+02  .453268880468D-08  .804669345640D+00
    -.302866101265D-05  .201612985693D-01  .543147325516D-05  .515366204834D+04
     .129584000000D+06 -.294297933578D-06  .106425933995D+01 -.409781932831D-07
     .972625495699D+00  .287125000000D+03  .143981802494D+01 -.840820737844D-08
    -.575023952056D-10  .100000000000D+01  .149600000000D+04  .000000000000D+00
     .240000000000D+01  .000000000000D+00 -.558793544769D-08  .290000000000D+02
     .128886000000D+06  .400000000000D+01
31 08  9  8 13 58 24.0 -.251890160143D-04 -.204636307899D-11  .000000000000D+00
     .950000000000D+02 -.607187500000D+02  .443839916285D-08  .263978081900D+01
    -.303983688354D-05  .667101913132D-02  .482238829136D-05  .515353684235D+04
     .136704000000D+06  .156462192535D-06  .109676745702D+01 -.335276126862D-07
     .969067519472D+00  .289250000000D+03 -.123974321441D+01 -.797461788913D-08
     .103575742917D-10  .100000000000D+01  .149600000000D+04  .000000000000D+00
     .240000000000D+01  .000000000000D+00 -.130385160446D-07  .950000000000D+02
     .129606000000D+06  .400000000000D+01
 9 08  9  8 13 59 44.0  .139451585710D-04  .181898940355D-11  .000000000000D+00
     .380000000000D+02 -.724687500000D+02  .424267672452D-08  .185472218280D+01
    -.409781932831D-05  .201622749446D-01  .450387597084D-05  .515366741371D+04
     .136784000000D+06  .132247805595D-06  .106419951099D+01 -.439584255219D-06
     .972627877329D+00  .299312500000D+03  .143995080524D+01 -.787211361942D-08
     .682171272315D-10  .100000000000D+01  .149600000000D+04  .000000000000D+00
     .240000000000D+01  .000000000000D+00 -.558793544769D-08  .380000000000D+02
     .129606000000D+06  .400000000000D+01
10 08  9  8 13 59 44.0 -.463519245386D-05 -.341060513165D-12  .000000000000D+00
     .250000000000D+02  .716250000000D+02  .429553606918D-08 -.722039671462D+00
     .385753810406D-05  .800415710546D-02  .686571002007D-05  .515370383072D+04
     .136784000000D+06  .141561031342D-06 -.968688518359D+00  .782310962677D-07
     .962002226408D+00  .244781250000D+03  .556320694727D+00 -.806390732268D-08
    -.782175437889D-10  .100000000000D+01  .149600000000D+04  .000000000000D+00
     .240000000000D+01  .000000000000D+00 -.232830643654D-08  .250000000000D+02
     .129606000000D+06  .400000000000D+01
19 08  9  8 13 59 44.0  .353134237230D-04  .227373675443D-12  .000000000000D+00
     .360000000000D+02 -.378125000000D+01  .468840957679D-08 -.118759403821D+01
    -.143423676491D-06  .489378650673D-02  .772625207901D-05  .515372422409D+04
     .136784000000D+06 -.558793544769D-07 -.301813451723D+01 -.279396772385D-07
     .957770550074D+00  .230812500000D+03 -.500744669500D+00 -.800890503161D-08
     .642883921553D-10  .100000000000D+01  .149600000000D+04  .000000000000D+00
     .240000000000D+01  .000000000000D+00 -.144354999065D-07  .360000000000D+02
     .129606000000D+06  .400000000000D+01
21 08  9  8 13 59 44.0  .514099374413D-04 -.147792889038D-11  .000000000000D+00
     .410000000000D+02  .237812500000D+02  .507985445347D-08  .186402157267D+01
     .127963721752D-05  .142749459483D-01  .799261033535D-05  .515368728447D+04
     .136784000000D+06 -.279396772385D-06 -.201812329603D+01  .875443220139D-07
     .935380113422D+00  .216187500000D+03 -.267958504249D+01 -.824034324337D-08
    -.407874132452D-09  .100000000000D+01  .149600000000D+04  .000000000000D+00
     .240000000000D+01  .000000000000D+00 -.116415321827D-07  .410000000000D+02
     .129606000000D+06  .400000000000D+01
 2 08  9  8 14  0  0.0  .188928563148D-03 -.284217094304D-11  .000000000000D+00
     .840000000000D+02  .327500000000D+02  .483377277461D-08 -.163956706118D+01
     .174529850483D-05  .874307379127D-02  .772438943386D-05  .515377111244D+04
     .136800000000D+06 -.119209289551D-06 -.205170929992D+01 -.111758708954D-06
     .942594950360D+00  .221500000000D+03  .263772217873D+01 -.813319592311D-08
    -.150363406097D-09  .100000000000D+01  .149600000000D+04  .000000000000D+00
     .340000000000D+01  .000000000000D+00 -.172294676304D-07  .840000000000D+02
     .129606000000D+06  .400000000000D+01
 3 08  9  8 14  0  0.0  .280691310763D-03  .511590769747D-11  .000000000000D+00
     .147000000000D+03 -.803125000000D+01  .532486465913D-08 -.197096204874D+01
    -.394880771637D-06  .111277349060D-01  .733695924282D-05  .515369486046D+04
     .136800000000D+06  .119209289551D-06  .308682016830D+01 -.819563865662D-07
     .926395900473D+00  .218906250000D+03  .845681367463D+00 -.817248327387D-08
     .153934983439D-09  .100000000000D+01  .149600000000D+04  .000000000000D+00
     .240000000000D+01  .000000000000D+00 -.419095158577D-08  .147000000000D+03
     .129606000000D+06  .400000000000D+01
 4 08  9  8 14  0  0.0 -.165426637977D-03 -.108002495836D-10  .000000000000D+00
     .500000000000D+02  .340312500000D+02  .487663170271D-08  .116624113817D+01
     .203028321266D-05  .827269884758D-02  .750273466110D-05  .515357922935D+04
     .136800000000D+06 -.745058059692D-07 -.203298451611D+01  .819563865662D-07
     .941866443489D+00  .225750000000D+03  .394289620362D+00 -.814176770873D-08
    -.344300055765D-09  .100000000000D+01  .149600000000D+04  .000000000000D+00
     .240000000000D+01  .000000000000D+00 -.605359673500D-08  .500000000000D+02
     .129606000000D+06  .400000000000D+01
 5 08  9  8 14  0  0.0  .742101110518D-04 -.216232365347D-09  .277555756156D-16
     .990000000000D+02 -.619687500000D+02  .500413701382D-08  .760000056413D+00
    -.319629907608D-05  .927108328324D-02  .811181962490D-05  .515369897461D+04
     .136800000000D+06 -.108033418655D-06  .205481426454D+01  .104308128357D-06
     .943447960337D+00  .215562500000D+03  .127021067340D+01 -.832534678411D-08
     .982183769039D-10  .100000000000D+01  .149600000000D+04  .000000000000D+00
     .485000000000D+01  .630000000000D+02 -.419095158577D-08  .990000000000D+02
     .129606000000D+06  .400000000000D+01
 6 08  9  8 14  0  0.0  .167075544596D-03 -.102318153949D-11  .000000000000D+00
     .620000000000D+02 -.609375000000D+01  .523700385652D-08  .630471639503D+00
    -.268220901489D-06  .574640999548D-02  .779516994953D-05  .515371383286D+04
     .136800000000D+06 -.912696123123D-07 -.313093082324D+01 -.409781932831D-07
     .933938587594D+00  .219843750000D+03 -.158262600757D+01 -.834070456668D-08
    -.964325882329D-11  .100000000000D+01  .149600000000D+04  .000000000000D+00
     .240000000000D+01  .000000000000D+00 -.465661287308D-08  .620000000000D+02
     .129606000000D+06  .400000000000D+01
 7 08  9  8 14  0  0.0  .156830064952D-04  .284217094304D-11  .000000000000D+00
     .760000000000D+02 -.556562500000D+02  .459662003910D-08  .300524023879D+01
    -.278651714325D-05  .218550348654D-02  .523962080479D-05  .515369990540D+04
     .136800000000D+06 -.819563865662D-07  .110012797295D+01  .596046447754D-07
     .963602446664D+00  .279718750000D+03  .271127029886D+01 -.811962392921D-08
     .125362364703D-09  .100000000000D+01  .149600000000D+04  .000000000000D+00
     .340000000000D+01  .000000000000D+00 -.107102096081D-07  .760000000000D+02
     .129606000000D+06  .400000000000D+01
 8 08  9  8 14  0  0.0 -.169135164469D-03 -.159161572810D-11  .000000000000D+00
     .130000000000D+02 -.685625000000D+02  .411552857114D-08  .222137615273D+01
    -.339932739735D-05  .105446358211D-01  .575557351112D-05  .515372644806D+04
     .136800000000D+06  .353902578354D-07  .115508498341D+01  .275671482086D-06
     .984752059607D+00  .281937500000D+03  .290296444378D+01 -.789854329175D-08
    -.178578867098D-11  .100000000000D+01  .149600000000D+04  .000000000000D+00
     .340000000000D+01  .000000000000D+00 -.372529029846D-08  .130000000000D+02
     .129606000000D+06  .400000000000D+01
11 08  9  8 14  0  0.0  .202259980142D-04 -.682121026330D-12  .000000000000D+00
     .550000000000D+02  .215937500000D+02  .606668127305D-08  .267087732837D+01
     .102631747723D-05  .844551855698D-02  .706315040588D-05  .515364690208D+04
     .136800000000D+06 -.521540641785D-07 -.223871042558D+01 -.856816768646D-07
     .890591916751D+00  .205468750000D+03  .609819044200D+00 -.862893085818D-08
    -.191436545529D-09  .100000000000D+01  .149600000000D+04  .000000000000D+00
     .240000000000D+01  .000000000000D+00 -.121071934700D-07  .550000000000D+02
     .129606000000D+06  .400000000000D+01
12 08  9  8 14  0  0.0 -.351749360561D-03  .147792889038D-11  .000000000000D+00
     .750000000000D+02 -.626562500000D+02  .439982612756D-08  .311109543300D+01
    -.321865081787D-05  .315870798659D-02  .834278762341D-05  .515353358078D+04
     .136800000000D+06 -.149011611938D-07  .215059779735D+01  .139698386192D-06
     .964657046752D+00  .218812500000D+03 -.862079710680D+00 -.780925385820D-08
     .169292766009D-09  .100000000000D+01  .149600000000D+04  .000000000000D+00
     .240000000000D+01  .000000000000D+00 -.116415321827D-07  .750000000000D+02
     .129606000000D+06  .400000000000D+01
13 08  9  8 14  0  0.0  .270436052233D-03  .125055521494D-11  .000000000000D+00
     .103000000000D+03  .158750000000D+02  .384516016636D-08 -.107519866245D+01
     .101514160633D-05  .372310413513D-02  .484846532345D-05  .515358123398D+04
     .136800000000D+06 -.186264514923D-08  .102977081363D+00  .316649675369D-07
     .995732519365D+00  .310187500000D+03  .154711805849D+01 -.784354100068D-08
     .154292141173D-09  .100000000000D+01  .149600000000D+04  .000000000000D+00
     .340000000000D+01  .000000000000D+00 -.111758708954D-07  .103000000000D+03
     .129606000000D+06  .400000000000D+01
